KUIPER-00074            
1 64821U 25151F   25228.44153113  .00022617  00000+0  64811-3 0  9996
2 64821  51.8772 137.3017 0004572 260.3535  99.6935 15.35809263  4789
KUIPER-00075            
1 64822U 25151G   25228.04662001  .00025368  00000+0  70513-3 0  9996
2 64822  51.8773 139.1627 0004586 248.5683 111.4815 15.36692878  4722
KUIPER-00076            
1 64823U 25151H   25228.44392490  .00021795  00000+0  62674-3 0  9992
2 64823  51.8765 137.3174 0004997 254.7347 105.3086 15.35721502  4787
KUIPER-00077            
1 64824U 25151J   25228.44642540  .00023790  00000+0  68339-3 0  9998
2 64824  51.8786 137.3423 0005402 265.2773  94.7596 15.35697850  4785
KUIPER-00078            
1 64825U 25151K   25228.44579118  .00026805  00000+0  76766-3 0  9992
2 64825  51.8779 137.3334 0005555 267.1963  92.8387 15.35723807  4789
KUIPER-00079            
1 64826U 25151L   25228.58335648  .00056067  00000+0  19864-2 0  9994
2 64826  51.8792 136.7335 0004568 257.9788  99.6765 15.28559814  4348
KUIPER-00080            
1 64827U 25151M   25228.58335648  .00050383  00000+0  16997-2 0  9994
2 64827  51.8793 136.7841 0002827 281.1506  74.7368 15.30207826  4951
KUIPER-00082            
1 64828U 25151N   25227.98130964  .00015105  00000+0  43281-3 0  9992
2 64828  51.8775 139.4704 0004966 247.7063 112.3397 15.36102733  4714
KUIPER-00083            
1 64829U 25151P   25228.44453589  .00028723  00000+0  82031-3 0  9992
2 64829  51.8771 137.3220 0005187 255.5036 104.5375 15.35775655  5970
KUIPER-00084            
1 64830U 25151Q   25228.58335648  .00043342  00000+0  21833-2 0  9990
2 64830  51.8879 137.8975 0007082 245.5169 246.3027 15.16737245  4537
KUIPER-00085            
1 64831U 25151R   25228.04386350  .00015364  00000+0  43787-3 0  9994
2 64831  51.8775 139.1432 0005687 244.3176 115.7223 15.36253634  4725
KUIPER-00086            
1 64832U 25151S   25228.66670139  .00054418  00000+0  16187-2 0  9990
2 64832  51.8775 136.2894 0005863 263.0557 224.9869 15.34189228  4806
KUIPER-00087            
1 64833U 25151T   25228.17857404  .00025672  00000+0  72891-3 0  9994
2 64833  51.8777 138.5483 0005094 244.3979 115.6481 15.36020562  4740
KUIPER-00089            
1 64834U 25151U   25228.58335648  .00056520  00000+0  16010-2 0  9997
2 64834  51.8778 136.6616 0005521 266.3240 140.9456 15.35710586  5890
KUIPER-00090            
1 64835U 25151V   25228.44923764  .00021185  00000+0  61407-3 0  9995
2 64835  51.8781 137.3565 0005305 274.3573  85.6806 15.35488413  4786
KUIPER-00091            
1 64836U 25151W   25227.98053958  .00022688  00000+0  64490-3 0  9997
2 64836  51.8771 139.4661 0005558 240.1969 119.8465 15.36056374  4718
KUIPER-00092            
1 64837U 25151X   25228.04880946  .00024163  00000+0  68640-3 0  9992
2 64837  51.8768 139.1698 0005296 252.2552 107.7856 15.36039358  5931
KUIPER-00093            
1 64838U 25151Y   25228.44375264  .00015517  00000+0  44908-3 0  9993
2 64838  51.8787 137.3255 0004889 257.6719 102.3719 15.35765736  4789
KUIPER-00094            
1 64839U 25151Z   25228.04840937  .00027356  00000+0  77703-3 0  9997
2 64839  51.8769 139.1677 0005249 256.3693 103.6708 15.35971503  4723
